[
  {
    "OBJECT_NAME": "STARLINK-34202",
    "OBJECT_ID": "25113E",
    "EPOCH": "2025-11-11T01:32:48.225120",
    "MEAN_MOTION": 15.30197669,
    "ECCENTRICITY": 9.67e-05,
    "INCLINATION": 53.1592,
    "RA_OF_ASC_NODE": 282.0945,
    "ARG_OF_PERICENTER": 16.2708,
    "MEAN_ANOMALY": 343.8323,
    "EPHEMERIS_TYPE": 0,
    "CLASSIFICATION_TYPE": "U",
    "NORAD_CAT_ID": 64174,
    "ELEMENT_SET_NO": 999,
    "REV_AT_EPOCH": 2690,
    "BSTAR": 0.0009077800000000001,
    "MEAN_MOTION_DOT": 0.00026621,
    "MEAN_MOTION_DDOT": 0.0,
    "TLE_LINE1": "1 64174U 25113E   25315.06444705  .00026621  00000+0  90778-3 0  9990",
    "TLE_LINE2": "2 64174  53.1592 282.0945 0000967  16.2708 343.8323 15.30197669 26905",
    "COMMENT": "Grouped by shell and plane from TLE"
  },
  {
    "OBJECT_NAME": "STARLINK-34231",
    "OBJECT_ID": "25113F",
    "EPOCH": "2025-11-11T06:37:45.243840",
    "MEAN_MOTION": 15.30216541,
    "ECCENTRICITY": 0.0001067,
    "INCLINATION": 53.1588,
    "RA_OF_ASC_NODE": 281.2818,
    "ARG_OF_PERICENTER": 109.9695,
    "MEAN_ANOMALY": 250.1421,
    "EPHEMERIS_TYPE": 0,
    "CLASSIFICATION_TYPE": "U",
    "NORAD_CAT_ID": 64175,
    "ELEMENT_SET_NO": 999,
    "REV_AT_EPOCH": 2693,
    "BSTAR": 0.0010469000000000001,
    "MEAN_MOTION_DOT": 0.00030792,
    "MEAN_MOTION_DDOT": 0.0,
    "TLE_LINE1": "1 64175U 25113F   25315.27621810  .00030792  00000+0  10469-2 0  9990",
    "TLE_LINE2": "2 64175  53.1588 281.2818 0001067 109.9695 250.1421 15.30216541 26931",
    "COMMENT": "Grouped by shell and plane from TLE"
  },
  {
    "OBJECT_NAME": "STARLINK-34191",
    "OBJECT_ID": "25113G",
    "EPOCH": "2025-11-11T06:54:18.397152",
    "MEAN_MOTION": 15.30210558,
    "ECCENTRICITY": 0.0001065,
    "INCLINATION": 53.1612,
    "RA_OF_ASC_NODE": 280.6415,
    "ARG_OF_PERICENTER": 105.4872,
    "MEAN_ANOMALY": 254.6247,
    "EPHEMERIS_TYPE": 0,
    "CLASSIFICATION_TYPE": "U",
    "NORAD_CAT_ID": 64176,
    "ELEMENT_SET_NO": 999,
    "REV_AT_EPOCH": 2694,
    "BSTAR": 0.00069836,
    "MEAN_MOTION_DOT": 0.00020388,
    "MEAN_MOTION_DDOT": 0.0,
    "TLE_LINE1": "1 64176U 25113G   25315.28771293  .00020388  00000+0  69836-3 0  9996",
    "TLE_LINE2": "2 64176  53.1612 280.6415 0001065 105.4872 254.6247 15.30210558 26940",
    "COMMENT": "Grouped by shell and plane from TLE"
  },
  {
    "OBJECT_NAME": "STARLINK-34164",
    "OBJECT_ID": "25113H",
    "EPOCH": "2025-11-11T06:48:23.055552",
    "MEAN_MOTION": 15.30252649,
    "ECCENTRICITY": 0.0001042,
    "INCLINATION": 53.1607,
    "RA_OF_ASC_NODE": 281.3307,
    "ARG_OF_PERICENTER": 140.0038,
    "MEAN_ANOMALY": 220.104,
    "EPHEMERIS_TYPE": 0,
    "CLASSIFICATION_TYPE": "U",
    "NORAD_CAT_ID": 64177,
    "ELEMENT_SET_NO": 999,
    "REV_AT_EPOCH": 2693,
    "BSTAR": 0.0021827,
    "MEAN_MOTION_DOT": 0.0006496,
    "MEAN_MOTION_DDOT": 0.0,
    "TLE_LINE1": "1 64177U 25113H   25315.28360018  .00064960  00000+0  21827-2 0  9997",
    "TLE_LINE2": "2 64177  53.1607 281.3307 0001042 140.0038 220.1040 15.30252649 26932",
    "COMMENT": "Grouped by shell and plane from TLE"
  },
  {
    "OBJECT_NAME": "STARLINK-34227",
    "OBJECT_ID": "25113J",
    "EPOCH": "2025-11-11T04:45:27.998208",
    "MEAN_MOTION": 15.30210235,
    "ECCENTRICITY": 0.0001356,
    "INCLINATION": 53.1588,
    "RA_OF_ASC_NODE": 281.5069,
    "ARG_OF_PERICENTER": 95.6185,
    "MEAN_ANOMALY": 264.4971,
    "EPHEMERIS_TYPE": 0,
    "CLASSIFICATION_TYPE": "U",
    "NORAD_CAT_ID": 64178,
    "ELEMENT_SET_NO": 999,
    "REV_AT_EPOCH": 2692,
    "BSTAR": 0.0015576000000000001,
    "MEAN_MOTION_DOT": 0.00046074,
    "MEAN_MOTION_DDOT": 0.0,
    "TLE_LINE1": "1 64178U 25113J   25315.19824072  .00046074  00000+0  15576-2 0  9993",
    "TLE_LINE2": "2 64178  53.1588 281.5069 0001356  95.6185 264.4971 15.30210235 26922",
    "COMMENT": "Grouped by shell and plane from TLE"
  },
  {
    "OBJECT_NAME": "STARLINK-34194",
    "OBJECT_ID": "25113K",
    "EPOCH": "2025-11-11T05:27:51.233184",
    "MEAN_MOTION": 15.30225825,
    "ECCENTRICITY": 0.0001342,
    "INCLINATION": 53.1617,
    "RA_OF_ASC_NODE": 280.9819,
    "ARG_OF_PERICENTER": 82.3495,
    "MEAN_ANOMALY": 277.7658,
    "EPHEMERIS_TYPE": 0,
    "CLASSIFICATION_TYPE": "U",
    "NORAD_CAT_ID": 64179,
    "ELEMENT_SET_NO": 999,
    "REV_AT_EPOCH": 2693,
    "BSTAR": 0.0012363,
    "MEAN_MOTION_DOT": 0.00036466,
    "MEAN_MOTION_DDOT": 0.0,
    "TLE_LINE1": "1 64179U 25113K   25315.22767631  .00036466  00000+0  12363-2 0  9990",
    "TLE_LINE2": "2 64179  53.1617 280.9819 0001342  82.3495 277.7658 15.30225825 26935",
    "COMMENT": "Grouped by shell and plane from TLE"
  },
  {
    "OBJECT_NAME": "STARLINK-34000",
    "OBJECT_ID": "25113L",
    "EPOCH": "2025-11-11T04:24:11.572992",
    "MEAN_MOTION": 15.30217994,
    "ECCENTRICITY": 0.0001107,
    "INCLINATION": 53.1606,
    "RA_OF_ASC_NODE": 281.4127,
    "ARG_OF_PERICENTER": 103.6437,
    "MEAN_ANOMALY": 256.4687,
    "EPHEMERIS_TYPE": 0,
    "CLASSIFICATION_TYPE": "U",
    "NORAD_CAT_ID": 64180,
    "ELEMENT_SET_NO": 999,
    "REV_AT_EPOCH": 2688,
    "BSTAR": 0.0019205000000000001,
    "MEAN_MOTION_DOT": 0.0005699,
    "MEAN_MOTION_DDOT": 0.0,
    "TLE_LINE1": "1 64180U 25113L   25315.18346728  .00056990  00000+0  19205-2 0  9993",
    "TLE_LINE2": "2 64180  53.1606 281.4127 0001107 103.6437 256.4687 15.30217994 26883",
    "COMMENT": "Grouped by shell and plane from TLE"
  },
  {
    "OBJECT_NAME": "STARLINK-33917",
    "OBJECT_ID": "25113M",
    "EPOCH": "2025-11-11T06:36:14.135040",
    "MEAN_MOTION": 15.30209679,
    "ECCENTRICITY": 0.0001189,
    "INCLINATION": 53.1595,
    "RA_OF_ASC_NODE": 281.2742,
    "ARG_OF_PERICENTER": 109.7865,
    "MEAN_ANOMALY": 250.3264,
    "EPHEMERIS_TYPE": 0,
    "CLASSIFICATION_TYPE": "U",
    "NORAD_CAT_ID": 64181,
    "ELEMENT_SET_NO": 999,
    "REV_AT_EPOCH": 2693,
    "BSTAR": 0.00075676,
    "MEAN_MOTION_DOT": 0.00022127,
    "MEAN_MOTION_DDOT": 0.0,
    "TLE_LINE1": "1 64181U 25113M   25315.27516360  .00022127  00000+0  75676-3 0  9995",
    "TLE_LINE2": "2 64181  53.1595 281.2742 0001189 109.7865 250.3264 15.30209679 26935",
    "COMMENT": "Grouped by shell and plane from TLE"
  },
  {
    "OBJECT_NAME": "STARLINK-34131",
    "OBJECT_ID": "25113N",
    "EPOCH": "2025-11-11T04:42:25.459200",
    "MEAN_MOTION": 15.30222458,
    "ECCENTRICITY": 0.0001129,
    "INCLINATION": 53.1587,
    "RA_OF_ASC_NODE": 281.4895,
    "ARG_OF_PERICENTER": 95.8018,
    "MEAN_ANOMALY": 264.3112,
    "EPHEMERIS_TYPE": 0,
    "CLASSIFICATION_TYPE": "U",
    "NORAD_CAT_ID": 64182,
    "ELEMENT_SET_NO": 999,
    "REV_AT_EPOCH": 2688,
    "BSTAR": 0.001489,
    "MEAN_MOTION_DOT": 0.00044033,
    "MEAN_MOTION_DDOT": 0.0,
    "TLE_LINE1": "1 64182U 25113N   25315.19612800  .00044033  00000+0  14890-2 0  9993",
    "TLE_LINE2": "2 64182  53.1587 281.4895 0001129  95.8018 264.3112 15.30222458 26888",
    "COMMENT": "Grouped by shell and plane from TLE"
  },
  {
    "OBJECT_NAME": "STARLINK-34188",
    "OBJECT_ID": "25113P",
    "EPOCH": "2025-11-11T06:39:16.630848",
    "MEAN_MOTION": 15.30209873,
    "ECCENTRICITY": 9.66e-05,
    "INCLINATION": 53.1586,
    "RA_OF_ASC_NODE": 281.2893,
    "ARG_OF_PERICENTER": 100.8185,
    "MEAN_ANOMALY": 259.2924,
    "EPHEMERIS_TYPE": 0,
    "CLASSIFICATION_TYPE": "U",
    "NORAD_CAT_ID": 64183,
    "ELEMENT_SET_NO": 999,
    "REV_AT_EPOCH": 2693,
    "BSTAR": 0.0016364,
    "MEAN_MOTION_DOT": 0.00048438,
    "MEAN_MOTION_DDOT": 0.0,
    "TLE_LINE1": "1 64183U 25113P   25315.27727582  .00048438  00000+0  16364-2 0  9998",
    "TLE_LINE2": "2 64183  53.1586 281.2893 0000966 100.8185 259.2924 15.30209873 26930",
    "COMMENT": "Grouped by shell and plane from TLE"
  },
  {
    "OBJECT_NAME": "STARLINK-34197",
    "OBJECT_ID": "25113Q",
    "EPOCH": "2025-11-11T06:43:50.066976",
    "MEAN_MOTION": 15.30205277,
    "ECCENTRICITY": 0.0001279,
    "INCLINATION": 53.1593,
    "RA_OF_ASC_NODE": 281.3102,
    "ARG_OF_PERICENTER": 95.1181,
    "MEAN_ANOMALY": 264.9966,
    "EPHEMERIS_TYPE": 0,
    "CLASSIFICATION_TYPE": "U",
    "NORAD_CAT_ID": 64184,
    "ELEMENT_SET_NO": 999,
    "REV_AT_EPOCH": 2693,
    "BSTAR": 0.00061043,
    "MEAN_MOTION_DOT": 0.00017766,
    "MEAN_MOTION_DDOT": 0.0,
    "TLE_LINE1": "1 64184U 25113Q   25315.28044059  .00017766  00000+0  61043-3 0  9996",
    "TLE_LINE2": "2 64184  53.1593 281.3102 0001279  95.1181 264.9966 15.30205277 26936",
    "COMMENT": "Grouped by shell and plane from TLE"
  },
  {
    "OBJECT_NAME": "STARLINK-34063",
    "OBJECT_ID": "25113R",
    "EPOCH": "2025-11-11T06:24:04.586400",
    "MEAN_MOTION": 15.30220534,
    "ECCENTRICITY": 0.0001103,
    "INCLINATION": 53.1583,
    "RA_OF_ASC_NODE": 281.2198,
    "ARG_OF_PERICENTER": 82.9115,
    "MEAN_ANOMALY": 277.2011,
    "EPHEMERIS_TYPE": 0,
    "CLASSIFICATION_TYPE": "U",
    "NORAD_CAT_ID": 64185,
    "ELEMENT_SET_NO": 999,
    "REV_AT_EPOCH": 2693,
    "BSTAR": 0.0020405,
    "MEAN_MOTION_DOT": 0.00060609,
    "MEAN_MOTION_DDOT": 0.0,
    "TLE_LINE1": "1 64185U 25113R   25315.26671975  .00060609  00000+0  20405-2 0  9998",
    "TLE_LINE2": "2 64185  53.1583 281.2198 0001103  82.9115 277.2011 15.30220534 26938",
    "COMMENT": "Grouped by shell and plane from TLE"
  },
  {
    "OBJECT_NAME": "STARLINK-34200",
    "OBJECT_ID": "25113S",
    "EPOCH": "2025-11-11T04:15:05.042880",
    "MEAN_MOTION": 15.30177124,
    "ECCENTRICITY": 7.39e-05,
    "INCLINATION": 53.161,
    "RA_OF_ASC_NODE": 281.3722,
    "ARG_OF_PERICENTER": 63.0036,
    "MEAN_ANOMALY": 297.104,
    "EPHEMERIS_TYPE": 0,
    "CLASSIFICATION_TYPE": "U",
    "NORAD_CAT_ID": 64186,
    "ELEMENT_SET_NO": 999,
    "REV_AT_EPOCH": 2692,
    "BSTAR": 0.0017607,
    "MEAN_MOTION_DOT": 0.00052117,
    "MEAN_MOTION_DDOT": 0.0,
    "TLE_LINE1": "1 64186U 25113S   25315.17714170  .00052117  00000+0  17607-2 0  9999",
    "TLE_LINE2": "2 64186  53.1610 281.3722 0000739  63.0036 297.1040 15.30177124 26928",
    "COMMENT": "Grouped by shell and plane from TLE"
  }
]